{
  "type": "FeatureCollection",
  "features": [
    {
      "type": "Feature",
      "properties": {
        "norad_id": 66511,
        "name": "STARLINK-35444",
        "group": "last-30-days",
        "lat": 17.17896746279165,
        "lon": -39.466528493240375,
        "alt_km": 393.9882194144102,
        "timestamp": "2025-12-06T18:50:08.955460+00:00",
        "meta_object_name": "STARLINK-35444",
        "meta_object_id": "2025-263AC",
        "meta_epoch": "2025-12-06T08:00:01.999872",
        "meta_mean_motion": 15.59091386,
        "meta_eccentricity": 0.0001601,
        "meta_inclination": 42.9994,
        "meta_ra_of_asc_node": 162.5808,
        "meta_arg_of_pericenter": 269.3762,
        "meta_mean_anomaly": 229.5128,
        "meta_ephemeris_type": 0,
        "meta_classification_type": "U",
        "meta_norad_cat_id": 66511,
        "meta_element_set_no": 999,
        "meta_rev_at_epoch": 460,
        "meta_bstar": -0.028726359,
        "meta_mean_motion_dot": -0.02019785,
        "meta_mean_motion_ddot": 0,
        "tle_line1": "1 66511U 25263AC  25340.33335648 -.02019785  00000+0 -28726-1 0  9995",
        "tle_line2": "2 66511  42.9994 162.5808 0001601 269.3762 229.5128 15.59091386  4607"
      },
      "geometry": {
        "type": "Point",
        "coordinates": [
          -39.466528493240375,
          17.17896746279165
        ]
      }
    },
    {
      "type": "Feature",
      "properties": {
        "norad_id": 66512,
        "name": "STARLINK-35366",
        "group": "last-30-days",
        "lat": 14.687780669668012,
        "lon": -36.437623108769934,
        "alt_km": 394.28090470154257,
        "timestamp": "2025-12-06T18:50:08.955481+00:00",
        "meta_object_name": "STARLINK-35366",
        "meta_object_id": "2025-263AD",
        "meta_epoch": "2025-12-06T06:00:02.000160",
        "meta_mean_motion": 15.59478092,
        "meta_eccentricity": 0.00018024,
        "meta_inclination": 43,
        "meta_ra_of_asc_node": 163.0646,
        "meta_arg_of_pericenter": 269.0596,
        "meta_mean_anomaly": 125.3108,
        "meta_ephemeris_type": 0,
        "meta_classification_type": "U",
        "meta_norad_cat_id": 66512,
        "meta_element_set_no": 999,
        "meta_rev_at_epoch": 459,
        "meta_bstar": -0.028644867,
        "meta_mean_motion_dot": -0.02041313,
        "meta_mean_motion_ddot": 0,
        "tle_line1": "1 66512U 25263AD  25340.25002315 -.02041313  00000+0 -28645-1 0  9991",
        "tle_line2": "2 66512  43.0000 163.0646 0001802 269.0596 125.3108 15.59478092  4591"
      },
      "geometry": {
        "type": "Point",
        "coordinates": [
          -36.437623108769934,
          14.687780669668012
        ]
      }
    },
    {
      "type": "Feature",
      "properties": {
        "norad_id": 66513,
        "name": "STARLINK-35692",
        "group": "last-30-days",
        "lat": 18.40451092706891,
        "lon": -41.00792269604025,
        "alt_km": 393.8511677560018,
        "timestamp": "2025-12-06T18:50:08.955493+00:00",
        "meta_object_name": "STARLINK-35692",
        "meta_object_id": "2025-263AE",
        "meta_epoch": "2025-12-06T06:00:02.000160",
        "meta_mean_motion": 15.59476075,
        "meta_eccentricity": 0.00018284,
        "meta_inclination": 42.9997,
        "meta_ra_of_asc_node": 163.0784,
        "meta_arg_of_pericenter": 268.9649,
        "meta_mean_anomaly": 119.6579,
        "meta_ephemeris_type": 0,
        "meta_classification_type": "U",
        "meta_norad_cat_id": 66513,
        "meta_element_set_no": 999,
        "meta_rev_at_epoch": 459,
        "meta_bstar": -0.028645862,
        "meta_mean_motion_dot": -0.02041258,
        "meta_mean_motion_ddot": 0,
        "tle_line1": "1 66513U 25263AE  25340.25002315 -.02041258  00000+0 -28646-1 0  9991",
        "tle_line2": "2 66513  42.9997 163.0784 0001828 268.9649 119.6579 15.59476075  4590"
      },
      "geometry": {
        "type": "Point",
        "coordinates": [
          -41.00792269604025,
          18.40451092706891
        ]
      }
    },
    {
      "type": "Feature",
      "properties": {
        "norad_id": 66514,
        "name": "SENTINEL-6B",
        "group": "last-30-days",
        "lat": -26.704323701763254,
        "lon": 161.90871833387413,
        "alt_km": 1318.5697063177668,
        "timestamp": "2025-12-06T18:50:08.955504+00:00",
        "meta_object_name": "SENTINEL-6B",
        "meta_object_id": "2025-264A",
        "meta_epoch": "2025-12-05T07:31:22.416096",
        "meta_mean_motion": 12.8587776,
        "meta_eccentricity": 0.00115487,
        "meta_inclination": 66.0393,
        "meta_ra_of_asc_node": 177.917,
        "meta_arg_of_pericenter": 268.403,
        "meta_mean_anomaly": 91.5665,
        "meta_ephemeris_type": 0,
        "meta_classification_type": "U",
        "meta_norad_cat_id": 66514,
        "meta_element_set_no": 999,
        "meta_rev_at_epoch": 233,
        "meta_bstar": 0.0002937849,
        "meta_mean_motion_dot": 1.1e-07,
        "meta_mean_motion_ddot": 0,
        "tle_line1": "1 66514U 25264A   25339.31345389  .00000011  00000+0  29378-3 0  9992",
        "tle_line2": "2 66514  66.0393 177.9170 0011548 268.4030  91.5665 12.85877760  2336"
      },
      "geometry": {
        "type": "Point",
        "coordinates": [
          161.90871833387413,
          -26.704323701763254
        ]
      }
    },
    {
      "type": "Feature",
      "properties": {
        "norad_id": 66516,
        "name": "STARLINK-35924",
        "group": "last-30-days",
        "lat": -41.93672171348358,
        "lon": -16.362743464645863,
        "alt_km": 377.43510879745645,
        "timestamp": "2025-12-06T18:50:08.955521+00:00",
        "meta_object_name": "STARLINK-35924",
        "meta_object_id": "2025-265A",
        "meta_epoch": "2025-12-06T06:00:02.000160",
        "meta_mean_motion": 15.66566395,
        "meta_eccentricity": 0.00013085,
        "meta_inclination": 43.0002,
        "meta_ra_of_asc_node": 92.2324,
        "meta_arg_of_pericenter": 278.9119,
        "meta_mean_anomaly": 202.1565,
        "meta_ephemeris_type": 0,
        "meta_classification_type": "U",
        "meta_norad_cat_id": 66516,
        "meta_element_set_no": 999,
        "meta_rev_at_epoch": 393,
        "meta_bstar": -0.020729616,
        "meta_mean_motion_dot": -0.01967383,
        "meta_mean_motion_ddot": 0,
        "tle_line1": "1 66516U 25265A   25340.25002315 -.01967383  00000+0 -20730-1 0  9997",
        "tle_line2": "2 66516  43.0002  92.2324 0001308 278.9119 202.1565 15.66566395  3934"
      },
      "geometry": {
        "type": "Point",
        "coordinates": [
          -16.362743464645863,
          -41.93672171348358
        ]
      }
    },
    {
      "type": "Feature",
      "properties": {
        "norad_id": 66517,
        "name": "STARLINK-35937",
        "group": "last-30-days",
        "lat": -42.255053442847256,
        "lon": -13.823402977812833,
        "alt_km": 377.4262371955874,
        "timestamp": "2025-12-06T18:50:08.955531+00:00",
        "meta_object_name": "STARLINK-35937",
        "meta_object_id": "2025-265B",
        "meta_epoch": "2025-12-06T06:00:02.000160",
        "meta_mean_motion": 15.66564609,
        "meta_eccentricity": 0.0001335,
        "meta_inclination": 43.0001,
        "meta_ra_of_asc_node": 92.2282,
        "meta_arg_of_pericenter": 280.1072,
        "meta_mean_anomaly": 202.8796,
        "meta_ephemeris_type": 0,
        "meta_classification_type": "U",
        "meta_norad_cat_id": 66517,
        "meta_element_set_no": 999,
        "meta_rev_at_epoch": 395,
        "meta_bstar": -0.020711569,
        "meta_mean_motion_dot": -0.01965767,
        "meta_mean_motion_ddot": 0,
        "tle_line1": "1 66517U 25265B   25340.25002315 -.01965767  00000+0 -20712-1 0  9992",
        "tle_line2": "2 66517  43.0001  92.2282 0001335 280.1072 202.8796 15.66564609  3951"
      },
      "geometry": {
        "type": "Point",
        "coordinates": [
          -13.823402977812833,
          -42.255053442847256
        ]
      }
    },
    {
      "type": "Feature",
      "properties": {
        "norad_id": 66518,
        "name": "STARLINK-35962",
        "group": "last-30-days",
        "lat": -42.51626838098682,
        "lon": -11.261993118833429,
        "alt_km": 377.4530583383703,
        "timestamp": "2025-12-06T18:50:08.955543+00:00",
        "meta_object_name": "STARLINK-35962",
        "meta_object_id": "2025-265C",
        "meta_epoch": "2025-12-06T06:00:02.000160",
        "meta_mean_motion": 15.66567155,
        "meta_eccentricity": 0.00013044,
        "meta_inclination": 42.9997,
        "meta_ra_of_asc_node": 92.2235,
        "meta_arg_of_pericenter": 280.1391,
        "meta_mean_anomaly": 204.7652,
        "meta_ephemeris_type": 0,
        "meta_classification_type": "U",
        "meta_norad_cat_id": 66518,
        "meta_element_set_no": 999,
        "meta_rev_at_epoch": 395,
        "meta_bstar": -0.020776886,
        "meta_mean_motion_dot": -0.01971386,
        "meta_mean_motion_ddot": 0,
        "tle_line1": "1 66518U 25265C   25340.25002315 -.01971386  00000+0 -20777-1 0  9998",
        "tle_line2": "2 66518  42.9997  92.2235 0001304 280.1391 204.7652 15.66567155  3953"
      },
      "geometry": {
        "type": "Point",
        "coordinates": [
          -11.261993118833429,
          -42.51626838098682
        ]
      }
    }
  ]
}